QIANFAN-25              
1 61558U 24185G   26001.93575983  .00000570  00000+0  33983-3 0  9993
2 61558  88.9789  75.9074 0007848 240.4848 119.5552 14.05927207 72346
QIANFAN-26              
1 61559U 24185H   26001.93771485  .00000183  00000+0  16968-3 0  9993
2 61559  88.9800  77.5747 0003936 324.3518  35.7385 13.77824628 71451
QIANFAN-27              
1 61560U 24185J   26001.93876024  .00001046  00000+0  42106-3 0  9992
2 61560  88.9792  74.5788 0006726 207.2725 152.8117 14.27362789 73046
QIANFAN-28              
1 61561U 24185K   26001.98097476  .00001547  00000+0  61705-3 0  9996
2 61561  88.9810  74.5786 0006261 205.0091 155.0801 14.28082887 73068
QIANFAN-29              
1 61562U 24185L   26001.95806967  .00000247  00000+0  36387-3 0  9991
2 61562  88.9777  79.2252 0009457   3.5604 356.5613 13.51019840 70523
QIANFAN-30              
1 61563U 24185M   26001.94824302  .00000263  00000+0  39525-3 0  9999
2 61563  88.9798  78.7595 0006659 351.4507   8.6529 13.49995068 70791
QIANFAN-31              
1 61564U 24185N   26001.94538134  .00000202  00000+0  26249-3 0  9997
2 61564  88.9781  78.5296 0005820 345.6955  14.4034 13.57975469 70902
QIANFAN-32              
1 61565U 24185P   26001.90552487  .00000268  00000+0  39853-3 0  9998
2 61565  88.9840  78.9040 0009373  17.5717 342.5756 13.50742860 70768
